[{"OBJECT_NAME":"STARLINK-1277","OBJECT_ID":"2020-019K","EPOCH":"2026-03-10T00:00:02.999808","MEAN_MOTION":15.48940207,"ECCENTRICITY":0.00040314,"INCLINATION":53.0509,"RA_OF_ASC_NODE":151.1274,"ARG_OF_PERICENTER":12.6993,"MEAN_ANOMALY":253.0952,"EPHEMERIS_TYPE":0,"CLASSIFICATION_TYPE":"U","NORAD_CAT_ID":45369,"ELEMENT_SET_NO":999,"REV_AT_EPOCH":575,"BSTAR":0.002005627,"MEAN_MOTION_DOT":0.00111275,"MEAN_MOTION_DDOT":0},{"OBJECT_NAME":"SITRO-AIS 39","OBJECT_ID":"2024-199AV","EPOCH":"2026-03-09T21:45:33.461856","MEAN_MOTION":15.49706693,"ECCENTRICITY":0.00072488,"INCLINATION":97.3088,"RA_OF_ASC_NODE":302.8491,"ARG_OF_PERICENTER":301.349,"MEAN_ANOMALY":58.7052,"EPHEMERIS_TYPE":0,"CLASSIFICATION_TYPE":"U","NORAD_CAT_ID":61778,"ELEMENT_SET_NO":999,"REV_AT_EPOCH":11900,"BSTAR":0.00077550481,"MEAN_MOTION_DOT":0.00043134,"MEAN_MOTION_DDOT":0}]
